ELFIN-B                 
1 43616U 18070D   21083.23593184  .00009393  00000-0  20944-3 0  9991
2 43616  93.0192 270.6355 0013476 343.2081  16.8727 15.43482370141628
ELFIN-A                 
1 43617U 18070E   21083.47860065  .00009989  00000-0  21981-3 0  9996
2 43617  93.0244 271.5026 0012683 339.1297  20.9440 15.43882043141678
CUBEBEL-1 (BSUSAT-1)    
1 43666U 18083E   21083.82214847  .00002445  00000-0  11956-3 0  9995
2 43666  97.4653 113.2328 0016527 103.4219  70.0577 15.19059580133165
CICERO 10               
1 43690U 18088A   21083.71367606  .00001898  00000-0  83709-4 0  9994
2 43690  85.0349 253.5515 0014826  10.3843 349.7702 15.20967581131325
IRVINE01                
1 43693U 18088D   21083.46140602  .00006240  00000-0  24903-3 0  9990
2 43693  85.0316 251.4044 0016081 346.1048  13.9750 15.24832366131484
PROXIMA I               
1 43694U 18088E   21083.71407043  .00002165  00000-0  90874-4 0  9997
2 43694  85.0290 251.3753 0017801 338.9267  21.1240 15.22696656131477
PROXIMA II              
1 43696U 18088G   21083.71222583  .00002249  00000-0  94476-4 0  9998
2 43696  85.0296 251.3839 0017951 338.7214  21.3280 15.22695103131478
FACSAT-1                
1 43721U 18096C   21083.83162831  .00003622  00000-0  13315-3 0  9996
2 43721  97.3894 161.6213 0016330 206.3059 288.1767 15.28431571129195
CENTAURI-2              
1 43722U 18096D   21083.77057424  .00005198  00000-0  18440-3 0  9995
2 43722  97.3928 162.1967 0016182 205.2162 154.8290 15.29391865129219
INNOSAT-2               
1 43738U 18096V   21083.82511587  .00007913  00000-0  25197-3 0  9997
2 43738  97.3962 165.5380 0021367 208.9071 291.0697 15.32617670129438
SIRION PATHFINDER-2     
1 43759U 18099B   21083.15046734  .00000812  00000-0  78438-4 0  9994
2 43759  97.6720 155.5639 0013380 334.6843  25.3721 14.95457821125735
CORVUS BC4              
1 43767U 18099K   21083.46405628  .00000603  00000-0  60490-4 0  9995
2 43767  97.6693 154.9655 0010990 339.2828  20.7946 14.94886417125736
MOVE-II                 
1 43780U 18099Y   21083.19035522  .00000894  00000-0  85132-4 0  9994
2 43780  97.6736 155.6756 0012782 345.5325  14.5529 14.95788676125728
SPACEBEE-7              
1 43816U 18099BL  21083.14719098  .00001298  00000-0  12069-3 0  9993
2 43816  97.6755 156.1857 0012183 329.5948  30.4565 14.96016710125300
SPACEBEE-5              
1 43817U 18099BM  21083.15131499  .00002653  00000-0  23484-3 0  9997
2 43817  97.6838 157.2093 0011509 328.6582  31.3953 14.97075689125348
SPACEBEE-6              
1 43818U 18099BN  21083.46571067  .00001256  00000-0  11603-3 0  9999
2 43818  97.6772 156.8112 0012078 326.9063  33.1402 14.96336913125517
SHIELDS 1               
1 43850U 18104B   21083.23785830  .00001104  00000-0  46735-4 0  9999
2 43850  85.0329 350.3279 0016801 117.6127 242.6823 15.21760409126011
STF-1                   
1 43852U 18104D   21083.16699396  .00002547  00000-0  10906-3 0  9996
2 43852  85.0369 351.0387 0015993 130.2332 230.0313 15.22145482125984
ZACUBE-2                
1 43907U 18111AH  21083.82048921  .00001376  00000-0  57621-4 0  9995
2 43907  97.2419 340.7722 0019699 229.9218 217.2388 15.25041301124739
LUME 1                  
1 43908U 18111AJ  21083.15456683  .00002464  00000-0  98371-4 0  9996
2 43908  97.2426 340.5658 0019186 230.6480 129.3060 15.25922124124668
AOBA VELOX-IV           
1 43940U 19003J   21083.37547608  .00004958  00000-0  19096-3 0  9991
2 43940  97.1902 130.6518 0021428 314.4906  45.4581 15.26585785121326
CATSAT-2                
1 44029U 98067PV  21083.74388966  .00435735  90479-4  92085-3 0  9991
2 44029  51.6376 315.8729 0005899 216.7141 143.3465 15.98213415122681
DELPHINI                
1 44030U 98067PW  21073.20127863  .06612467  12175-4  91963-3 0  9996
2 44030  51.6130   1.9822 0006321 224.0789 135.9732 16.34207165121093
UNITE                   
1 44031U 98067PX  21083.12965589  .00042401  00000-0  32057-3 0  9992
2 44031  51.6383 344.1696 0002242  82.2375 277.8878 15.71984789122225
CATSAT-1                
1 44033U 98067PZ  21083.36870910  .00362482  65237-4  77549-3 0  9999
2 44033  51.6366 317.8765 0005269 213.1701 146.8979 15.98023993122533
RAAVANA-1               
1 44329U 98067QE  21082.99397666  .00051447  00000-0  42812-3 0  9991
2 44329  51.6369   3.6179 0002753 342.0787  18.0112 15.69598938100702
UGUISU                  
1 44330U 98067QF  21083.79715088  .00049435  00000-0  41526-3 0  9999
2 44330  51.6344 359.9091 0002722 344.8858  15.2058 15.69388285100803
NEPALISAT-1             
1 44331U 98067QG  21082.98630265  .00050897  00000-0  42425-3 0  9996
2 44331  51.6347   3.4946 0002778 346.2140  13.8781 15.69563010100693
SPOOQY-1                
1 44332U 98067QH  21083.79378031  .00048205  00000-0  40960-3 0  9999
2 44332  51.6356 359.9155 0002319 357.7562   2.3425 15.69121492100772
SPACEBEE-9              
1 44370U 19037F   21083.17926388  .00034238  00000-0  55139-3 0  9992
2 44370  45.0034 343.7533 0007859  75.3300 284.8464 15.52379076 97918
SPACEBEE-8              
1 44371U 19037G   21083.68587106  .00264507  00000-0  15335-2 0  9997
2 44371  45.0000 312.7520 0010158 217.4319 142.5876 15.76994468 98304
IOD-1 GEMS              
1 44385U 98067QK  21083.70985502  .00637032  19523-3  11449-2 0  9999
2 44385  51.6298 342.0058 0006774 219.6749 140.3767 16.01022519 98519
MOVE-IIB                
1 44398U 19038N   21083.88290696  .00002908  00000-0  16604-3 0  9990
2 44398  97.5721  48.3327 0022825 240.1299 119.7664 15.13327498 94970
SONATE                  
1 44400U 19038Q   21083.23497908  .00001033  00000-0  63023-4 0  9994
2 44400  97.5794  47.6228 0023490 242.3908 117.4941 15.12397871 94857
LUCKY-7                 
1 44406U 19038W   21083.12815934  .00001451  00000-0  86066-4 0  9997
2 44406  97.5802  47.7272 0022795 241.0104 118.8842 15.12764714 94842
BEESAT 9                
1 44412U 19038AC  21083.36267454  .00002080  00000-0  12096-3 0  9998
2 44412  97.5784  47.9646 0020695 245.8846 114.0221 15.13029686 94580
JAISAT-1                
1 44419U 19038F   21083.35964597  .00002061  00000-0  11838-3 0  9998
2 44419  97.5789  48.4414 0019580 244.0475 115.8739 15.13513715 94923
SWIATOWID               
1 44426U 98067QL  21073.23590850  .07171462  12074-4  12707-2 0  9990
2 44426  51.6198  29.3922 0007231 188.0333 310.3019 16.31812792 96965
KRAKSAT                 
1 44427U 98067QM  21083.79462529  .00031035  00000-0  33196-3 0  9996
2 44427  51.6417   9.7551 0001252 294.9431  95.1229 15.63594175 98210
VCC A                   
1 44428U 98067QN  21083.39981168  .00045350  00000-0  40064-3 0  9995
2 44428  51.6383   4.8995 0000543 295.2224  64.8716 15.68198411 98242
ENTRYSAT                
1 44429U 98067QP  21083.80930606  .00059873  00000-0  42881-3 0  9997
2 44429  51.6328 357.0102 0000801 212.2697 147.8252 15.73115108 98385
VCC C                   
1 44430U 98067QQ  21083.45967306  .00170820  00000-0  76980-3 0  9990
2 44430  51.6300 350.8676 0002340 183.8744 176.2241 15.83013878 97251
VCC B                   
1 44431U 98067QR  21083.05914073  .00046796  00000-0  40863-3 0  9995
2 44431  51.6354   6.3052 0000642 293.4244  66.6685 15.68469687 98136
DUCHIFAT-3              
1 44854U 19089C   21083.82313559  .00000921  00000-0  80139-4 0  9999
2 44854  36.9653 241.0810 0007197 183.1868 176.8868 14.99388460 70399
EYESAT-NANO             
1 44877U 19092E   21083.24641406  .00002725  00000-0  13820-3 0  9995
2 44877  97.4591 268.1145 0014615 123.0070 237.2571 15.17707058 70010
ORBITAL FACTORY 2 (OF-2)
1 45113U 19071C   21083.27529549  .00005183  00000-0  16054-3 0  9995
2 45113  51.6419  90.3165 0012318 348.8580  11.2128 15.35105208 64080
M2 PATHFINDER           
1 45727U 20037E   21083.00706305  .00000334  00000-0  38942-4 0  9992
2 45727  97.7093 262.6955 0014217  90.5812 269.6965 14.91339862 39682
NETSAT-4                
1 46504U 20068U   21083.29814316  .00001320  00000-0  10521-3 0  9991
2 46504  97.6824  20.8940 0010416  48.7153 311.4965 15.02029183 26457
NETSAT-3                
1 46505U 20068V   21083.30267017  .00001518  00000-0  12043-3 0  9994
2 46505  97.6797  20.8765 0009181  49.4017 310.8005 15.01982636 26465
NETSAT-1                
1 46506U 20068W   21083.24061508  .00001503  00000-0  11944-3 0  9998
2 46506  97.6791  20.7995 0007880  46.3516 313.8361 15.01936445 26452
NETSAT-2                
1 46507U 20068X   21083.24283159  .00001444  00000-0  11501-3 0  9990
2 46507  97.6779  20.8035 0007615  44.4348 315.7487 15.01907771 26408
SPOC                    
1 46921U 98067RR  21083.42228003  .00013353  00000-0  21935-3 0  9995
2 46921  51.6430  39.5544 0002880 109.9935 250.1365 15.52726424 21639
BOBCAT-1                
1 46922U 98067RS  21083.25338289  .00018054  00000-0  28371-3 0  9999
2 46922  51.6437  39.9343 0002656 109.2440 250.8838 15.53697412 21584
NEUTRON-1               
1 46923U 98067RT  21083.17371898  .00012390  00000-0  20499-3 0  9994
2 46923  51.6429  40.8928 0002667 119.4088 240.7168 15.52605028 21630
1998-067RU              
1 46924U 98067RU  21083.24753967  .00030105  00000-0  43732-3 0  9993
2 46924  51.6415  39.1339 0002254 133.7493 226.3685 15.55529876 21637
DESCENT                 
1 46927U 98067RX  21083.24176680  .00012867  00000-0  21279-3 0  9994
2 46927  51.6428  40.5954 0002524 137.6191 222.4994 15.52577764 21558
